{"fetched_at":"2026-03-30T06:02:59Z","count":15439,"tles":[{"name":"BANDWAGON-4 OBJECT Q","line1":"1 66307U 25248Q   26087.64975314  .00019834  00000+0  79620-3 0  9996","line2":"2 66307  45.3994 189.4469 0011461 316.7785  43.2202 15.24684466 22305","category":"Other"}]}