{
  "norad_id": 66307,
  "name": "BANDWAGON-4 OBJECT Q",
  "history": [
    {
      "epoch": "2026-03-28T15:35:38.671296",
      "apogee_km": 499.606643162163,
      "perigee_km": 483.8595269531943,
      "latitude_deg": 34.764033401965605,
      "longitude_deg": 153.0763014398981,
      "semi_major_axis_km": 6869.870085057679,
      "eccentricity": 0.0011461,
      "inclination_deg": 45.3994,
      "raan_deg": 189.4469,
      "arg_perigee_deg": 316.7785,
      "mean_anomaly_deg": 43.2202,
      "mean_motion_rev_day": 15.24684466
    }
  ]
}